[{"OBJECT_NAME":"STARLINK-31527","OBJECT_ID":"2024-036W","EPOCH":"2026-03-09T07:35:27.884544","MEAN_MOTION":15.30193496,"ECCENTRICITY":0.00012847,"INCLINATION":53.1588,"RA_OF_ASC_NODE":80.0367,"ARG_OF_PERICENTER":85.6358,"MEAN_ANOMALY":274.4789,"EPHEMERIS_TYPE":0,"CLASSIFICATION_TYPE":"U","NORAD_CAT_ID":59018,"ELEMENT_SET_NO":999,"REV_AT_EPOCH":11526,"BSTAR":-4.6739165e-5,"MEAN_MOTION_DOT":-1.743e-5,"MEAN_MOTION_DDOT":0},{"OBJECT_NAME":"CONTECSAT-1","OBJECT_ID":"2024-043V","EPOCH":"2026-03-09T22:02:35.535840","MEAN_MOTION":15.34615346,"ECCENTRICITY":0.00100896,"INCLINATION":97.5476,"RA_OF_ASC_NODE":207.3735,"ARG_OF_PERICENTER":223.9905,"MEAN_ANOMALY":136.0535,"EPHEMERIS_TYPE":0,"CLASSIFICATION_TYPE":"U","NORAD_CAT_ID":59117,"ELEMENT_SET_NO":999,"REV_AT_EPOCH":11201,"BSTAR":0.0004369392,"MEAN_MOTION_DOT":0.00014607,"MEAN_MOTION_DDOT":0}]
